start=new Date('2023-06-21T00:00:00.000Z').valueOf();
sats=[{"BSTAR":"0.00027807000000","OBJECT_TYPE":"PAYLOAD","MEAN_MOTION_DOT":"0.00003862","TIME_SYSTEM":"UTC","MEAN_MOTION":"15.06392265","LAUNCH_DATE":"2021-02-16","ARG_OF_PERICENTER":"84.6784","EPOCH":"2023-06-20T08:25:46.507872","MEAN_ANOMALY":"275.4341","MEAN_MOTION_DDOT":"0.0000000000000","PERIOD":"95.593","COUNTRY_CODE":"US","TLE_LINE2":"2 47656  53.0521 190.8866 0001196  84.6784 275.4341 15.06392265130546","RA_OF_ASC_NODE":"190.8866","TLE_LINE1":"1 47656U 21012AN  23171.35123273  .00003862  00000-0  27807-3 0  9990","FILE":"3938135","INCLINATION":"53.0521","SITE":"AFETR","ECCENTRICITY":"0.00011960","CLASSIFICATION_TYPE":"U","DECAY_DATE":null,"APOAPSIS":"548.066","PERIAPSIS":"546.409","GP_ID":"234357424","SEMIMAJOR_AXIS":"6925.372","NORAD_CAT_ID":"47656","CENTER_NAME":"EARTH","OBJECT_ID":"2021-012AN","ELEMENT_SET_NO":"999","EPHEMERIS_TYPE":"0","REV_AT_EPOCH":"13054","REF_FRAME":"TEME","OBJECT_NAME":"STARLINK-2040","MEAN_ELEMENT_THEORY":"SGP4","RCS_SIZE":"LARGE"},{"MEAN_ANOMALY":"274.0332","LAUNCH_DATE":"2021-02-16","EPOCH":"2023-06-20T11:44:49.112448","ARG_OF_PERICENTER":"86.0780","MEAN_MOTION":"15.06392883","OBJECT_TYPE":"PAYLOAD","BSTAR":"0.00048295000000","TIME_SYSTEM":"UTC","MEAN_MOTION_DOT":"0.00006918","RA_OF_ASC_NODE":"210.2652","TLE_LINE1":"1 47657U 21012AP  23171.48945732  .00006918  00000-0  48295-3 0  9996","FILE":"3938135","PERIOD":"95.593","COUNTRY_CODE":"US","TLE_LINE2":"2 47657  53.0512 210.2652 0001080  86.0780 274.0332 15.06392883130283","MEAN_MOTION_DDOT":"0.0000000000000","CLASSIFICATION_TYPE":"U","DECAY_DATE":null,"ECCENTRICITY":"0.00010800","INCLINATION":"53.0512","SITE":"AFETR","MEAN_ELEMENT_THEORY":"SGP4","RCS_SIZE":"LARGE","REV_AT_EPOCH":"13028","REF_FRAME":"TEME","OBJECT_NAME":"STARLINK-2041","CENTER_NAME":"EARTH","OBJECT_ID":"2021-012AP","EPHEMERIS_TYPE":"0","ELEMENT_SET_NO":"999","APOAPSIS":"547.983","PERIAPSIS":"546.487","GP_ID":"234357174","SEMIMAJOR_AXIS":"6925.370","NORAD_CAT_ID":"47657"},{"MEAN_ANOMALY":"274.7348","EPOCH":"2023-06-20T09:58:39.884160","ARG_OF_PERICENTER":"85.3780","LAUNCH_DATE":"2021-02-16","MEAN_MOTION":"15.06393533","TIME_SYSTEM":"UTC","MEAN_MOTION_DOT":"0.00006305","OBJECT_TYPE":"PAYLOAD","BSTAR":"0.00044185000000","FILE":"3938135","RA_OF_ASC_NODE":"210.5964","TLE_LINE1":"1 47658U 21012AQ  23171.41573940  .00006305  00000-0  44185-3 0  9992","TLE_LINE2":"2 47658  53.0517 210.5964 0001217  85.3780 274.7348 15.06393533130290","COUNTRY_CODE":"US","PERIOD":"95.593","MEAN_MOTION_DDOT":"0.0000000000000","DECAY_DATE":null,"CLASSIFICATION_TYPE":"U","ECCENTRICITY":"0.00012170","SITE":"AFETR","INCLINATION":"53.0517","RCS_SIZE":"LARGE","MEAN_ELEMENT_THEORY":"SGP4","REF_FRAME":"TEME","OBJECT_NAME":"STARLINK-2042","REV_AT_EPOCH":"13029","ELEMENT_SET_NO":"999","EPHEMERIS_TYPE":"0","OBJECT_ID":"2021-012AQ","CENTER_NAME":"EARTH","NORAD_CAT_ID":"47658","GP_ID":"234357910","SEMIMAJOR_AXIS":"6925.368","PERIAPSIS":"546.391","APOAPSIS":"548.076"},{"MEAN_MOTION_DDOT":"0.0000000000000","FILE":"3938316","TLE_LINE1":"1 47659U 21012AR  23171.50788051 -.00001701  00000-0 -95308-4 0  9995","RA_OF_ASC_NODE":"90.1861","COUNTRY_CODE":"US","PERIOD":"95.592","TLE_LINE2":"2 47659  53.0538  90.1861 0002336  95.5270 264.5986 15.06398252131448","MEAN_MOTION":"15.06398252","BSTAR":"-0.00009530800000","OBJECT_TYPE":"PAYLOAD","TIME_SYSTEM":"UTC","MEAN_MOTION_DOT":"-0.00001701","MEAN_ANOMALY":"264.5986","LAUNCH_DATE":"2021-02-16","ARG_OF_PERICENTER":"95.5270","EPOCH":"2023-06-20T12:11:20.876064","OBJECT_ID":"2021-012AR","CENTER_NAME":"EARTH","ELEMENT_SET_NO":"999","EPHEMERIS_TYPE":"0","PERIAPSIS":"545.601","APOAPSIS":"548.837","SEMIMAJOR_AXIS":"6925.354","GP_ID":"234366090","NORAD_CAT_ID":"47659","MEAN_ELEMENT_THEORY":"SGP4","RCS_SIZE":"LARGE","REV_AT_EPOCH":"13144","REF_FRAME":"TEME","OBJECT_NAME":"STARLINK-2043","INCLINATION":"53.0538","SITE":"AFETR","DECAY_DATE":null,"CLASSIFICATION_TYPE":"U","ECCENTRICITY":"0.00023360"},{"FILE":"3938317","RA_OF_ASC_NODE":"81.0229","TLE_LINE1":"1 47660U 21012AS  23171.46096394  .00014795  00000-0  10095-2 0  9997","COUNTRY_CODE":"US","PERIOD":"95.591","TLE_LINE2":"2 47660  53.0546  81.0229 0002924  74.8897 285.2415 15.06418662131573","MEAN_MOTION_DDOT":"0.0000000000000","MEAN_ANOMALY":"285.2415","LAUNCH_DATE":"2021-02-16","ARG_OF_PERICENTER":"74.8897","EPOCH":"2023-06-20T11:03:47.284416","MEAN_MOTION":"15.06418662","OBJECT_TYPE":"PAYLOAD","BSTAR":"0.00100950000000","MEAN_MOTION_DOT":"0.00014795","TIME_SYSTEM":"UTC","MEAN_ELEMENT_THEORY":"SGP4","RCS_SIZE":"LARGE","REV_AT_EPOCH":"13157","REF_FRAME":"TEME","OBJECT_NAME":"STARLINK-2044","OBJECT_ID":"2021-012AS","CENTER_NAME":"EARTH","ELEMENT_SET_NO":"999","EPHEMERIS_TYPE":"0","PERIAPSIS":"545.131","APOAPSIS":"549.181","NORAD_CAT_ID":"47660","GP_ID":"234366109","SEMIMAJOR_AXIS":"6925.291","DECAY_DATE":null,"CLASSIFICATION_TYPE":"U","ECCENTRICITY":"0.00029240","INCLINATION":"53.0546","SITE":"AFETR"},{"LAUNCH_DATE":"2021-02-16","ARG_OF_PERICENTER":"79.0010","EPOCH":"2023-06-20T10:43:47.088192","MEAN_ANOMALY":"281.1109","BSTAR":"0.00043769000000","OBJECT_TYPE":"PAYLOAD","TIME_SYSTEM":"UTC","MEAN_MOTION_DOT":"0.00006243","MEAN_MOTION":"15.06396006","PERIOD":"95.592","COUNTRY_CODE":"US","TLE_LINE2":"2 47661  53.0516 190.4568 0001159  79.0010 281.1109 15.06396006130543","TLE_LINE1":"1 47661U 21012AT  23171.44707278  .00006243  00000-0  43769-3 0  9990","RA_OF_ASC_NODE":"190.4568","FILE":"3938135","MEAN_MOTION_DDOT":"0.0000000000000","ECCENTRICITY":"0.00011590","CLASSIFICATION_TYPE":"U","DECAY_DATE":null,"INCLINATION":"53.0516","SITE":"AFETR","REV_AT_EPOCH":"13054","REF_FRAME":"TEME","OBJECT_NAME":"STARLINK-2051","MEAN_ELEMENT_THEORY":"SGP4","RCS_SIZE":"LARGE","APOAPSIS":"548.028","PERIAPSIS":"546.423","SEMIMAJOR_AXIS":"6925.361","GP_ID":"234358928","NORAD_CAT_ID":"47661","CENTER_NAME":"EARTH","OBJECT_ID":"2021-012AT","ELEMENT_SET_NO":"999","EPHEMERIS_TYPE":"0"},{"MEAN_MOTION_DDOT":"0.0000000000000","TLE_LINE2":"2 47662  53.0518 190.8381 0001041  81.5111 278.5996 15.06395741130553","PERIOD":"95.592","COUNTRY_CODE":"US","RA_OF_ASC_NODE":"190.8381","TLE_LINE1":"1 47662U 21012AU  23171.36134609  .00003969  00000-0  28520-3 0  9994","FILE":"3938135","TIME_SYSTEM":"UTC","MEAN_MOTION_DOT":"0.00003969","BSTAR":"0.00028520000000","OBJECT_TYPE":"PAYLOAD","MEAN_MOTION":"15.06395741","EPOCH":"2023-06-20T08:40:20.302176","ARG_OF_PERICENTER":"81.5111","LAUNCH_DATE":"2021-02-16","MEAN_ANOMALY":"278.5996","NORAD_CAT_ID":"47662","GP_ID":"234358411","SEMIMAJOR_AXIS":"6925.362","APOAPSIS":"547.948","PERIAPSIS":"546.506","EPHEMERIS_TYPE":"0","ELEMENT_SET_NO":"999","CENTER_NAME":"EARTH","OBJECT_ID":"2021-012AU","REF_FRAME":"TEME","OBJECT_NAME":"STARLINK-2052","REV_AT_EPOCH":"13055","RCS_SIZE":"LARGE","MEAN_ELEMENT_THEORY":"SGP4","SITE":"AFETR","INCLINATION":"53.0518","ECCENTRICITY":"0.00010410","CLASSIFICATION_TYPE":"U","DECAY_DATE":null},{"MEAN_MOTION_DDOT":"0.0000000000000","FILE":"3938544","RA_OF_ASC_NODE":"109.0886","TLE_LINE1":"1 47663U 21012AV  23171.82307356  .00002995  00000-0  21984-3 0  9992","COUNTRY_CODE":"US","PERIOD":"95.591","TLE_LINE2":"2 47663  53.0536 109.0886 0002312  79.8717 280.2532 15.06410945131731","MEAN_MOTION":"15.06410945","BSTAR":"0.00021984000000","OBJECT_TYPE":"PAYLOAD","TIME_SYSTEM":"UTC","MEAN_MOTION_DOT":"0.00002995","MEAN_ANOMALY":"280.2532","LAUNCH_DATE":"2021-02-16","ARG_OF_PERICENTER":"79.8717","EPOCH":"2023-06-20T19:45:13.555584","OBJECT_ID":"2021-012AV","CENTER_NAME":"EARTH","EPHEMERIS_TYPE":"0","ELEMENT_SET_NO":"999","PERIAPSIS":"545.579","APOAPSIS":"548.781","SEMIMAJOR_AXIS":"6925.315","GP_ID":"234392162","NORAD_CAT_ID":"47663","MEAN_ELEMENT_THEORY":"SGP4","RCS_SIZE":"LARGE","REV_AT_EPOCH":"13173","OBJECT_NAME":"STARLINK-2053","REF_FRAME":"TEME","INCLINATION":"53.0536","SITE":"AFETR","DECAY_DATE":null,"CLASSIFICATION_TYPE":"U","ECCENTRICITY":"0.00023120"},{"MEAN_MOTION_DDOT":"0.0000000000000","COUNTRY_CODE":"US","PERIOD":"95.593","TLE_LINE2":"2 47664  53.0526 190.5409 0001205  86.7730 273.3397 15.06388295130046","FILE":"3938317","RA_OF_ASC_NODE":"190.5409","TLE_LINE1":"1 47664U 21012AW  23171.42864388  .00003415  00000-0  24814-3 0  9995","OBJECT_TYPE":"PAYLOAD","BSTAR":"0.00024814000000","MEAN_MOTION_DOT":"0.00003415","TIME_SYSTEM":"UTC","MEAN_MOTION":"15.06388295","LAUNCH_DATE":"2021-02-16","EPOCH":"2023-06-20T10:17:14.831232","ARG_OF_PERICENTER":"86.7730","MEAN_ANOMALY":"273.3397","PERIAPSIS":"546.415","APOAPSIS":"548.084","GP_ID":"234366107","NORAD_CAT_ID":"47664","SEMIMAJOR_AXIS":"6925.384","OBJECT_ID":"2021-012AW","CENTER_NAME":"EARTH","ELEMENT_SET_NO":"999","EPHEMERIS_TYPE":"0","REV_AT_EPOCH":"13004","OBJECT_NAME":"STARLINK-2054","REF_FRAME":"TEME","MEAN_ELEMENT_THEORY":"SGP4","RCS_SIZE":"LARGE","INCLINATION":"53.0526","SITE":"AFETR","ECCENTRICITY":"0.00012050","DECAY_DATE":null,"CLASSIFICATION_TYPE":"U"},{"MEAN_MOTION":"15.06391014","OBJECT_TYPE":"PAYLOAD","BSTAR":"0.00012752000000","MEAN_MOTION_DOT":"0.00001618","TIME_SYSTEM":"UTC","MEAN_ANOMALY":"276.0094","LAUNCH_DATE":"2021-02-16","EPOCH":"2023-06-20T08:13:10.410240","ARG_OF_PERICENTER":"84.1006","MEAN_MOTION_DDOT":"0.0000000000000","FILE":"3938135","TLE_LINE1":"1 47665U 21012AX  23171.34248160  .00001618  00000-0  12752-3 0  9992","RA_OF_ASC_NODE":"185.9707","COUNTRY_CODE":"US","PERIOD":"95.593","TLE_LINE2":"2 47665  53.0534 185.9707 0000977  84.1006 276.0094 15.06391014130618","INCLINATION":"53.0534","SITE":"AFETR","DECAY_DATE":null,"CLASSIFICATION_TYPE":"U","ECCENTRICITY":"0.00009770","OBJECT_ID":"2021-012AX","CENTER_NAME":"EARTH","EPHEMERIS_TYPE":"0","ELEMENT_SET_NO":"999","PERIAPSIS":"546.564","APOAPSIS":"547.918","NORAD_CAT_ID":"47665","GP_ID":"234359429","SEMIMAJOR_AXIS":"6925.376","MEAN_ELEMENT_THEORY":"SGP4","RCS_SIZE":"LARGE","REV_AT_EPOCH":"13061","REF_FRAME":"TEME","OBJECT_NAME":"STARLINK-2056"}];
